{
  "norad_id": 66259,
  "name": "STARLINK-35529",
  "history": [
    {
      "epoch": "2026-03-28T12:59:48.409728Z",
      "apogee_km": 475.72021677825614,
      "perigee_km": 474.5818856329515,
      "latitude_deg": 6.326725225410483e-05,
      "longitude_deg": 175.3508453439469,
      "height_km": 476.11793553746355,
      "semi_major_axis_km": 6853.288051205604,
      "eccentricity": 8.305e-05,
      "inclination_deg": 53.159,
      "raan_deg": 196.263,
      "arg_perigee_deg": 96.8943,
      "mean_anomaly_deg": 263.2153,
      "mean_motion_rev_day": 15.30221441
    },
    {
      "epoch": "2026-03-29T23:28:59.039040Z",
      "apogee_km": 476.0912196733516,
      "perigee_km": 474.2838609255832,
      "latitude_deg": -5.580816031898353e-05,
      "longitude_deg": 9.964966706392044,
      "height_km": 475.85366462304063,
      "semi_major_axis_km": 6853.324540299467,
      "eccentricity": 0.00013186,
      "inclination_deg": 53.159,
      "raan_deg": 189.5878,
      "arg_perigee_deg": 75.1336,
      "mean_anomaly_deg": 284.981,
      "mean_motion_rev_day": 15.3020922
    },
    {
      "epoch": "2026-03-30T13:35:27.997728Z",
      "apogee_km": 475.9543819192131,
      "perigee_km": 474.4976310785514,
      "latitude_deg": -1.7051307513649954e-05,
      "longitude_deg": 155.03933826587453,
      "height_km": 475.9574700387592,
      "semi_major_axis_km": 6853.363006498882,
      "eccentricity": 0.00010628,
      "inclination_deg": 53.1589,
      "raan_deg": 186.8622,
      "arg_perigee_deg": 76.7603,
      "mean_anomaly_deg": 283.3516,
      "mean_motion_rev_day": 15.30196337
    },
    {
      "epoch": "2026-03-31T13:06:15.808320Z",
      "apogee_km": 475.7811706813045,
      "perigee_km": 474.877883793014,
      "latitude_deg": 3.11462637599635e-05,
      "longitude_deg": 156.82330851883907,
      "height_km": 476.3838358448426,
      "semi_major_axis_km": 6853.4665272371585,
      "eccentricity": 6.59e-05,
      "inclination_deg": 53.1582,
      "raan_deg": 182.311,
      "arg_perigee_deg": 110.1505,
      "mean_anomaly_deg": 249.9567,
      "mean_motion_rev_day": 15.30161667
    },
    {
      "epoch": "2026-04-01T12:37:03.806400Z",
      "apogee_km": 475.8503690641928,
      "perigee_km": 474.50986023656606,
      "latitude_deg": -3.368619151190742e-05,
      "longitude_deg": 158.60561123360486,
      "height_km": 476.2422728465952,
      "semi_major_axis_km": 6853.317114650379,
      "eccentricity": 9.78e-05,
      "inclination_deg": 53.1584,
      "raan_deg": 177.759,
      "arg_perigee_deg": 104.1468,
      "mean_anomaly_deg": 255.9641,
      "mean_motion_rev_day": 15.30211707
    },
    {
      "epoch": "2026-04-02T15:15:57.973824Z",
      "apogee_km": 476.04104489514066,
      "perigee_km": 474.4363955040126,
      "latitude_deg": 1.3050096069727643e-05,
      "longitude_deg": 112.62633941338557,
      "height_km": 476.14295411974877,
      "semi_major_axis_km": 6853.375720199577,
      "eccentricity": 0.00011707,
      "inclination_deg": 53.1578,
      "raan_deg": 172.5998,
      "arg_perigee_deg": 90.4474,
      "mean_anomaly_deg": 269.6661,
      "mean_motion_rev_day": 15.30192079
    },
    {
      "epoch": "2026-04-03T10:04:34.534560Z",
      "apogee_km": 475.9852906237793,
      "perigee_km": 474.41423170464986,
      "latitude_deg": 6.25862636891081e-05,
      "longitude_deg": -173.94176550105115,
      "height_km": 475.5242924156849,
      "semi_major_axis_km": 6853.336761164214,
      "eccentricity": 0.00011462,
      "inclination_deg": 53.1573,
      "raan_deg": 168.9565,
      "arg_perigee_deg": 43.0631,
      "mean_anomaly_deg": 317.046,
      "mean_motion_rev_day": 15.30205127
    },
    {
      "epoch": "2026-04-04T14:17:33.714240Z",
      "apogee_km": 476.06121546571194,
      "perigee_km": 474.2711326766448,
      "latitude_deg": 1.2207655993380969e-05,
      "longitude_deg": 116.1963063858646,
      "height_km": 475.8471408207662,
      "semi_major_axis_km": 6853.303174071178,
      "eccentricity": 0.0001306,
      "inclination_deg": 53.159,
      "raan_deg": 163.5,
      "arg_perigee_deg": 75.9681,
      "mean_anomaly_deg": 284.1465,
      "mean_motion_rev_day": 15.30216376
    },
    {
      "epoch": "2026-04-05T10:40:16.267872Z",
      "apogee_km": 476.20924214819024,
      "perigee_km": 474.29043090169944,
      "latitude_deg": -8.942739651220805e-06,
      "longitude_deg": 165.73746791893558,
      "height_km": 476.142259689911,
      "semi_major_axis_km": 6853.386836524945,
      "eccentricity": 0.00013999,
      "inclination_deg": 53.1587,
      "raan_deg": 159.5554,
      "arg_perigee_deg": 89.6817,
      "mean_anomaly_deg": 270.4344,
      "mean_motion_rev_day": 15.30188356
    }
  ]
}